{"type": "FeatureCollection", "features": [ {"type": "Feature", "properties": {"norad_id": 40664, "name": "SKY MEXICO-1", "group": "intelsat", "lat": -0.004427652953694871, "lon": 157.66985279118467, "alt_km": 35790.29418500295, "timestamp": "2025-12-04T10:51:49.773972+00:00", "meta": {"OBJECT_NAME": "SKY MEXICO-1", "OBJECT_ID": "2015-026B", "EPOCH": "2025-12-03T13:22:52.871232", "MEAN_MOTION": 1.00270473, "ECCENTRICITY": 0.00027742, "INCLINATION": 0.0171, "RA_OF_ASC_NODE": 337.602, "ARG_OF_PERICENTER": 288.9303, "MEAN_ANOMALY": 288.0745, "EPHEMERIS_TYPE": 0, "CLASSIFICATION_TYPE": "U", "NORAD_CAT_ID": 40664, "ELEMENT_SET_NO": 999, "REV_AT_EPOCH": 3849, "BSTAR": 0, "MEAN_MOTION_DOT": -2.16e-06, "MEAN_MOTION_DDOT": 0}, "tle": {"line1": "1 40664U 15026B   25337.55755638 -.00000216  00000+0  00000+0 0  9996", "line2": "2 40664   0.0171 337.6020 0002774 288.9303 288.0745  1.00270473 38497"}}, "geometry": {"type": "Point", "coordinates": [157.66985279118467, -0.004427652953694871]}}, {"type": "Feature", "properties": {"norad_id": 40874, "name": "INTELSAT 34 (IS-34)", "group": "intelsat", "lat": -0.02684134656887089, "lon": -179.0409697622462, "alt_km": 35784.53783512613, "timestamp": "2025-12-04T10:51:49.773984+00:00", "meta": {"OBJECT_NAME": "INTELSAT 34 (IS-34)", "OBJECT_ID": "2015-039A", "EPOCH": "2025-12-03T21:13:12.575712", "MEAN_MOTION": 1.00270047, "ECCENTRICITY": 5.075e-05, "INCLINATION": 0.0115, "RA_OF_ASC_NODE": 306.0047, "ARG_OF_PERICENTER": 225.7354, "MEAN_ANOMALY": 164.028, "EPHEMERIS_TYPE": 0, "CLASSIFICATION_TYPE": "U", "NORAD_CAT_ID": 40874, "ELEMENT_SET_NO": 999, "REV_AT_EPOCH": 3766, "BSTAR": 0, "MEAN_MOTION_DOT": -2.68e-06, "MEAN_MOTION_DDOT": 0}, "tle": {"line1": "1 40874U 15039A   25337.88417333 -.00000268  00000+0  00000+0 0  9993", "line2": "2 40874   0.0115 306.0047 0000507 225.7354 164.0280  1.00270047 37666"}}, "geometry": {"type": "Point", "coordinates": [-179.0409697622462, -0.02684134656887089]}}, {"type": "Feature", "properties": {"norad_id": 41581, "name": "INTELSAT 31 (IS-31)", "group": "intelsat", "lat": -0.013948999656348368, "lon": 141.38123717886802, "alt_km": 35784.51877785838, "timestamp": "2025-12-04T10:51:49.773996+00:00", "meta": {"OBJECT_NAME": "INTELSAT 31 (IS-31)", "OBJECT_ID": "2016-035A", "EPOCH": "2025-12-03T13:18:15.813216", "MEAN_MOTION": 1.0027005, "ECCENTRICITY": 0.00020986, "INCLINATION": 0.0165, "RA_OF_ASC_NODE": 271.6332, "ARG_OF_PERICENTER": 305.8436, "MEAN_ANOMALY": 319.6781, "EPHEMERIS_TYPE": 0, "CLASSIFICATION_TYPE": "U", "NORAD_CAT_ID": 41581, "ELEMENT_SET_NO": 999, "REV_AT_EPOCH": 3472, "BSTAR": 0, "MEAN_MOTION_DOT": -1.33e-06, "MEAN_MOTION_DDOT": 0}, "tle": {"line1": "1 41581U 16035A   25337.55434969 -.00000133  00000+0  00000+0 0  9995", "line2": "2 41581   0.0165 271.6332 0002098 305.8436 319.6781  1.00270050 34721"}}, "geometry": {"type": "Point", "coordinates": [141.38123717886802, -0.013948999656348368]}}, {"type": "Feature", "properties": {"norad_id": 41747, "name": "INTELSAT 36 (IS-36)", "group": "intelsat", "lat": -0.020892257872282275, "lon": -55.043455856615786, "alt_km": 35780.73271654162, "timestamp": "2025-12-04T10:51:49.774009+00:00", "meta": {"OBJECT_NAME": "INTELSAT 36 (IS-36)", "OBJECT_ID": "2016-053A", "EPOCH": "2025-12-03T20:09:58.164192", "MEAN_MOTION": 1.00268515, "ECCENTRICITY": 0.00015172, "INCLINATION": 0.0123, "RA_OF_ASC_NODE": 0.9905, "ARG_OF_PERICENTER": 315.4282, "MEAN_ANOMALY": 127.5011, "EPHEMERIS_TYPE": 0, "CLASSIFICATION_TYPE": "U", "NORAD_CAT_ID": 41747, "ELEMENT_SET_NO": 999, "REV_AT_EPOCH": 3399, "BSTAR": 0, "MEAN_MOTION_DOT": -7e-08, "MEAN_MOTION_DDOT": 0}, "tle": {"line1": "1 41747U 16053A   25337.84025653 -.00000007  00000+0  00000+0 0  9997", "line2": "2 41747   0.0123   0.9905 0001517 315.4282 127.5011  1.00268515 33992"}}, "geometry": {"type": "Point", "coordinates": [-55.043455856615786, -0.020892257872282275]}}, {"type": "Feature", "properties": {"norad_id": 41945, "name": "INTELSAT 32E (IS-32E)", "group": "intelsat", "lat": -1.3874939504778593e-08, "lon": -166.7180302838507, "alt_km": 35787.72946108262, "timestamp": "2025-12-04T10:51:49.774021+00:00", "meta": {"OBJECT_NAME": "INTELSAT 32E (IS-32E)", "OBJECT_ID": "2017-007B", "EPOCH": "2025-12-04T01:32:10.413024", "MEAN_MOTION": 1.00269296, "ECCENTRICITY": 2.68e-05, "INCLINATION": 0.0326, "RA_OF_ASC_NODE": 73.0805, "ARG_OF_PERICENTER": 264.0377, "MEAN_ANOMALY": 75.8935, "EPHEMERIS_TYPE": 0, "CLASSIFICATION_TYPE": "U", "NORAD_CAT_ID": 41945, "ELEMENT_SET_NO": 999, "REV_AT_EPOCH": 3226, "BSTAR": 0, "MEAN_MOTION_DOT": -2.53e-06, "MEAN_MOTION_DDOT": 0}, "tle": {"line1": "1 41945U 17007B   25338.06400941 -.00000253  00000+0  00000+0 0  9992", "line2": "2 41945   0.0326  73.0805 0000268 264.0377  75.8935  1.00269296 32269"}}, "geometry": {"type": "Point", "coordinates": [-166.7180302838507, -1.3874939504778593e-08]}}, {"type": "Feature", "properties": {"norad_id": 42818, "name": "INTELSAT 35E (IS-35E)", "group": "intelsat", "lat": -0.032513021616101756, "lon": -158.04086157771252, "alt_km": 35780.56126122384, "timestamp": "2025-12-04T10:51:49.774033+00:00", "meta": {"OBJECT_NAME": "INTELSAT 35E (IS-35E)", "OBJECT_ID": "2017-041A", "EPOCH": "2025-12-04T01:34:40.175328", "MEAN_MOTION": 1.00270653, "ECCENTRICITY": 0.0002429, "INCLINATION": 0.0128, "RA_OF_ASC_NODE": 327.6511, "ARG_OF_PERICENTER": 289.5648, "MEAN_ANOMALY": 165.1181, "EPHEMERIS_TYPE": 0, "CLASSIFICATION_TYPE": "U", "NORAD_CAT_ID": 42818, "ELEMENT_SET_NO": 999, "REV_AT_EPOCH": 3085, "BSTAR": 0, "MEAN_MOTION_DOT": -2.21e-06, "MEAN_MOTION_DDOT": 0}, "tle": {"line1": "1 42818U 17041A   25338.06574277 -.00000221  00000+0  00000+0 0  9999", "line2": "2 42818   0.0128 327.6511 0002429 289.5648 165.1181  1.00270653 30853"}}, "geometry": {"type": "Point", "coordinates": [-158.04086157771252, -0.032513021616101756]}}, {"type": "Feature", "properties": {"norad_id": 42950, "name": "INTELSAT 37E (IS-37E)", "group": "intelsat", "lat": -0.0427702248334886, "lon": -141.55197994626306, "alt_km": 35773.5765234968, "timestamp": "2025-12-04T10:51:49.774044+00:00", "meta": {"OBJECT_NAME": "INTELSAT 37E (IS-37E)", "OBJECT_ID": "2017-059A", "EPOCH": "2025-12-04T01:39:17.233344", "MEAN_MOTION": 1.00270752, "ECCENTRICITY": 0.0003469, "INCLINATION": 0.0176, "RA_OF_ASC_NODE": 319.8059, "ARG_OF_PERICENTER": 287.9884, "MEAN_ANOMALY": 192.1826, "EPHEMERIS_TYPE": 0, "CLASSIFICATION_TYPE": "U", "NORAD_CAT_ID": 42950, "ELEMENT_SET_NO": 999, "REV_AT_EPOCH": 3010, "BSTAR": 0, "MEAN_MOTION_DOT": -1.24e-06, "MEAN_MOTION_DDOT": 0}, "tle": {"line1": "1 42950U 17059A   25338.06894946 -.00000124  00000+0  00000+0 0  9995", "line2": "2 42950   0.0176 319.8059 0003469 287.9884 192.1826  1.00270752 30106"}}, "geometry": {"type": "Point", "coordinates": [-141.55197994626306, -0.0427702248334886]}}, {"type": "Feature", "properties": {"norad_id": 43632, "name": "AZERSPACE 2 (IS-38)", "group": "intelsat", "lat": -0.03444549637320663, "lon": -78.41665219747266, "alt_km": 35779.18520424007, "timestamp": "2025-12-04T10:51:49.774056+00:00", "meta": {"OBJECT_NAME": "AZERSPACE 2 (IS-38)", "OBJECT_ID": "2018-074A", "EPOCH": "2025-12-03T17:23:40.331904", "MEAN_MOTION": 1.0027174, "ECCENTRICITY": 0.00017416, "INCLINATION": 0.0176, "RA_OF_ASC_NODE": 347.6047, "ARG_OF_PERICENTER": 271.7152, "MEAN_ANOMALY": 119.5202, "EPHEMERIS_TYPE": 0, "CLASSIFICATION_TYPE": "U", "NORAD_CAT_ID": 43632, "ELEMENT_SET_NO": 999, "REV_AT_EPOCH": 2648, "BSTAR": 0, "MEAN_MOTION_DOT": 1.54e-06, "MEAN_MOTION_DDOT": 0}, "tle": {"line1": "1 43632U 18074A   25337.72477236  .00000154  00000+0  00000+0 0  9994", "line2": "2 43632   0.0176 347.6047 0001741 271.7152 119.5202  1.00271740 26485"}}, "geometry": {"type": "Point", "coordinates": [-78.41665219747266, -0.03444549637320663]}}, {"type": "Feature", "properties": {"norad_id": 43633, "name": "HORIZONS-3E", "group": "intelsat", "lat": 0.014523534586163742, "lon": 45.48342803494272, "alt_km": 35788.92611990774, "timestamp": "2025-12-04T10:51:49.774068+00:00", "meta": {"OBJECT_NAME": "HORIZONS-3E", "OBJECT_ID": "2018-074B", "EPOCH": "2025-12-02T09:32:38.562720", "MEAN_MOTION": 1.00268601, "ECCENTRICITY": 0.00010808, "INCLINATION": 0.0303, "RA_OF_ASC_NODE": 208.778, "ARG_OF_PERICENTER": 80.6678, "MEAN_ANOMALY": 94.2479, "EPHEMERIS_TYPE": 0, "CLASSIFICATION_TYPE": "U", "NORAD_CAT_ID": 43633, "ELEMENT_SET_NO": 999, "REV_AT_EPOCH": 2636, "BSTAR": 0, "MEAN_MOTION_DOT": -1e-07, "MEAN_MOTION_DDOT": 0}, "tle": {"line1": "1 43633U 18074B   25336.39766855 -.00000010  00000+0  00000+0 0  9997", "line2": "2 43633   0.0303 208.7780 0001080  80.6678  94.2479  1.00268601 26369"}}, "geometry": {"type": "Point", "coordinates": [45.48342803494272, 0.014523534586163742]}}, {"type": "Feature", "properties": {"norad_id": 44333, "name": "AT&T T-16", "group": "intelsat", "lat": 0.02079969115298973, "lon": 135.58850953250638, "alt_km": 35785.43456647896, "timestamp": "2025-12-04T10:51:49.774080+00:00", "meta": {"OBJECT_NAME": "AT&T T-16", "OBJECT_ID": "2019-034A", "EPOCH": "2025-12-04T01:15:41.990976", "MEAN_MOTION": 1.00268584, "ECCENTRICITY": 4.45e-05, "INCLINATION": 0.0338, "RA_OF_ASC_NODE": 75.5156, "ARG_OF_PERICENTER": 93.7487, "MEAN_ANOMALY": 181.9263, "EPHEMERIS_TYPE": 0, "CLASSIFICATION_TYPE": "U", "NORAD_CAT_ID": 44333, "ELEMENT_SET_NO": 999, "REV_AT_EPOCH": 2367, "BSTAR": 0, "MEAN_MOTION_DOT": -9.8e-07, "MEAN_MOTION_DDOT": 0}, "tle": {"line1": "1 44333U 19034A   25338.05256934 -.00000098  00000+0  00000+0 0  9995", "line2": "2 44333   0.0338  75.5156 0000445  93.7487 181.9263  1.00268584 23675"}}, "geometry": {"type": "Point", "coordinates": [135.58850953250638, 0.02079969115298973]}}]}